FLOCK 4G-28             
1 62634U 25009AB  26068.18660240  .00011830  00000+0  37255-3 0  9993
2 62634  97.4053 152.4797 0000911 349.2155  10.9068 15.33074282 63756
STARLINK-35594          
1 66157U 25240M   26068.36986020  .00041631  00000+0  14099-2 0  9993
2 66157  53.1614  64.0013 0001623  75.4773 284.6408 15.30198855 21949
